[{"OBJECT_NAME":"STARLINK-30867","OBJECT_ID":"2023-171B","EPOCH":"2025-11-20T22:14:59.996256","MEAN_MOTION":15.02536004,"ECCENTRICITY":0.0001329,"INCLINATION":43.0039,"RA_OF_ASC_NODE":157.0811,"ARG_OF_PERICENTER":264.2669,"MEAN_ANOMALY":95.8022,"EPHEMERIS_TYPE":0,"CLASSIFICATION_TYPE":"U","NORAD_CAT_ID":58231,"ELEMENT_SET_NO":999,"REV_AT_EPOCH":11336,"BSTAR":-2.6547e-5,"MEAN_MOTION_DOT":-5.62e-6,"MEAN_MOTION_DDOT":0},{"OBJECT_NAME":"STARLINK-30880","OBJECT_ID":"2023-171C","EPOCH":"2025-11-20T22:19:47.614944","MEAN_MOTION":15.02536869,"ECCENTRICITY":9.54e-5,"INCLINATION":43.0028,"RA_OF_ASC_NODE":157.1077,"ARG_OF_PERICENTER":254.3105,"MEAN_ANOMALY":105.7632,"EPHEMERIS_TYPE":0,"CLASSIFICATION_TYPE":"U","NORAD_CAT_ID":58232,"ELEMENT_SET_NO":999,"REV_AT_EPOCH":11336,"BSTAR":-3.4476e-5,"MEAN_MOTION_DOT":-6.69e-6,"MEAN_MOTION_DDOT":0},{"OBJECT_NAME":"STARLINK-30777","OBJECT_ID":"2023-171D","EPOCH":"2025-11-20T14:30:44.465184","MEAN_MOTION":15.02534813,"ECCENTRICITY":8.8e-5,"INCLINATION":43.0023,"RA_OF_ASC_NODE":158.9593,"ARG_OF_PERICENTER":268.6912,"MEAN_ANOMALY":91.383,"EPHEMERIS_TYPE":0,"CLASSIFICATION_TYPE":"U","NORAD_CAT_ID":58233,"ELEMENT_SET_NO":999,"REV_AT_EPOCH":11331,"BSTAR":9.6519851e-5,"MEAN_MOTION_DOT":1.1e-5,"MEAN_MOTION_DDOT":0},{"OBJECT_NAME":"STARLINK-30860","OBJECT_ID":"2023-171E","EPOCH":"2025-11-20T06:27:18.123264","MEAN_MOTION":15.02537681,"ECCENTRICITY":0.0001259,"INCLINATION":43.0036,"RA_OF_ASC_NODE":160.7424,"ARG_OF_PERICENTER":271.6715,"MEAN_ANOMALY":88.3983,"EPHEMERIS_TYPE":0,"CLASSIFICATION_TYPE":"U","NORAD_CAT_ID":58234,"ELEMENT_SET_NO":999,"REV_AT_EPOCH":11326,"BSTAR":3.6212e-5,"MEAN_MOTION_DOT":2.86e-6,"MEAN_MOTION_DDOT":0},{"OBJECT_NAME":"STARLINK-30853","OBJECT_ID":"2023-171G","EPOCH":"2025-11-20T14:35:32.484768","MEAN_MOTION":15.02536626,"ECCENTRICITY":6.6e-5,"INCLINATION":43.0038,"RA_OF_ASC_NODE":158.9824,"ARG_OF_PERICENTER":240.7798,"MEAN_ANOMALY":119.2978,"EPHEMERIS_TYPE":0,"CLASSIFICATION_TYPE":"U","NORAD_CAT_ID":58236,"ELEMENT_SET_NO":999,"REV_AT_EPOCH":11331,"BSTAR":0.00011885492,"MEAN_MOTION_DOT":1.402e-5,"MEAN_MOTION_DDOT":0},{"OBJECT_NAME":"STARLINK-30866","OBJECT_ID":"2023-171H","EPOCH":"2025-11-20T13:52:23.823264","MEAN_MOTION":15.02545887,"ECCENTRICITY":0.00013263,"INCLINATION":43.0028,"RA_OF_ASC_NODE":158.7541,"ARG_OF_PERICENTER":260.2986,"MEAN_ANOMALY":99.7707,"EPHEMERIS_TYPE":0,"CLASSIFICATION_TYPE":"U","NORAD_CAT_ID":58237,"ELEMENT_SET_NO":999,"REV_AT_EPOCH":11331,"BSTAR":0.00010281604,"MEAN_MOTION_DOT":1.186e-5,"MEAN_MOTION_DDOT":0},{"OBJECT_NAME":"STARLINK-30817","OBJECT_ID":"2023-171J","EPOCH":"2025-11-20T22:38:58.544160","MEAN_MOTION":15.0253565,"ECCENTRICITY":0.0001113,"INCLINATION":43.0017,"RA_OF_ASC_NODE":157.1925,"ARG_OF_PERICENTER":272.6072,"MEAN_ANOMALY":87.4643,"EPHEMERIS_TYPE":0,"CLASSIFICATION_TYPE":"U","NORAD_CAT_ID":58238,"ELEMENT_SET_NO":999,"REV_AT_EPOCH":11336,"BSTAR":8.7621e-5,"MEAN_MOTION_DOT":9.8e-6,"MEAN_MOTION_DDOT":0},{"OBJECT_NAME":"STARLINK-30847","OBJECT_ID":"2023-171K","EPOCH":"2025-11-20T22:43:46.092000","MEAN_MOTION":15.02537114,"ECCENTRICITY":0.0001214,"INCLINATION":43.0029,"RA_OF_ASC_NODE":157.2239,"ARG_OF_PERICENTER":272.864,"MEAN_ANOMALY":87.2064,"EPHEMERIS_TYPE":0,"CLASSIFICATION_TYPE":"U","NORAD_CAT_ID":58239,"ELEMENT_SET_NO":999,"REV_AT_EPOCH":11336,"BSTAR":7.1226e-5,"MEAN_MOTION_DOT":7.59e-6,"MEAN_MOTION_DDOT":0},{"OBJECT_NAME":"STARLINK-30848","OBJECT_ID":"2023-171L","EPOCH":"2025-11-20T21:29:09.879072","MEAN_MOTION":15.02534409,"ECCENTRICITY":7.19e-5,"INCLINATION":43.0021,"RA_OF_ASC_NODE":158.5272,"ARG_OF_PERICENTER":261.07,"MEAN_ANOMALY":99.0061,"EPHEMERIS_TYPE":0,"CLASSIFICATION_TYPE":"U","NORAD_CAT_ID":58240,"ELEMENT_SET_NO":999,"REV_AT_EPOCH":11334,"BSTAR":5.765e-5,"MEAN_MOTION_DOT":5.75e-6,"MEAN_MOTION_DDOT":0},{"OBJECT_NAME":"STARLINK-30843","OBJECT_ID":"2023-171M","EPOCH":"2025-11-20T21:12:49.794624","MEAN_MOTION":15.02525798,"ECCENTRICITY":0.0001263,"INCLINATION":43.005,"RA_OF_ASC_NODE":157.5966,"ARG_OF_PERICENTER":266.3825,"MEAN_ANOMALY":93.6873,"EPHEMERIS_TYPE":0,"CLASSIFICATION_TYPE":"U","NORAD_CAT_ID":58241,"ELEMENT_SET_NO":999,"REV_AT_EPOCH":11337,"BSTAR":-7.1125e-5,"MEAN_MOTION_DOT":-1.164e-5,"MEAN_MOTION_DDOT":0},{"OBJECT_NAME":"STARLINK-30877","OBJECT_ID":"2023-171N","EPOCH":"2025-11-20T05:58:32.049120","MEAN_MOTION":15.02532945,"ECCENTRICITY":9.99e-5,"INCLINATION":43.0029,"RA_OF_ASC_NODE":160.5814,"ARG_OF_PERICENTER":264.2395,"MEAN_ANOMALY":95.8333,"EPHEMERIS_TYPE":0,"CLASSIFICATION_TYPE":"U","NORAD_CAT_ID":58242,"ELEMENT_SET_NO":999,"REV_AT_EPOCH":11326,"BSTAR":3.6739e-5,"MEAN_MOTION_DOT":2.93e-6,"MEAN_MOTION_DDOT":0},{"OBJECT_NAME":"STARLINK-30864","OBJECT_ID":"2023-171P","EPOCH":"2025-11-20T21:22:15.323232","MEAN_MOTION":15.02541847,"ECCENTRICITY":0.0001007,"INCLINATION":43.0023,"RA_OF_ASC_NODE":156.8045,"ARG_OF_PERICENTER":273.513,"MEAN_ANOMALY":86.5597,"EPHEMERIS_TYPE":0,"CLASSIFICATION_TYPE":"U","NORAD_CAT_ID":58243,"ELEMENT_SET_NO":999,"REV_AT_EPOCH":11326,"BSTAR":-3.9666e-5,"MEAN_MOTION_DOT":-7.39e-6,"MEAN_MOTION_DDOT":0},{"OBJECT_NAME":"STARLINK-30854","OBJECT_ID":"2023-171Q","EPOCH":"2025-11-20T06:48:26.085600","MEAN_MOTION":15.02534933,"ECCENTRICITY":8.65e-5,"INCLINATION":43.0033,"RA_OF_ASC_NODE":161.6945,"ARG_OF_PERICENTER":257.3224,"MEAN_ANOMALY":102.7522,"EPHEMERIS_TYPE":0,"CLASSIFICATION_TYPE":"U","NORAD_CAT_ID":58244,"ELEMENT_SET_NO":999,"REV_AT_EPOCH":11325,"BSTAR":0.00010307,"MEAN_MOTION_DOT":1.189e-5,"MEAN_MOTION_DDOT":0},{"OBJECT_NAME":"STARLINK-30849","OBJECT_ID":"2023-171R","EPOCH":"2025-11-20T21:27:02.992032","MEAN_MOTION":15.02536912,"ECCENTRICITY":0.0001424,"INCLINATION":43.0034,"RA_OF_ASC_NODE":156.8289,"ARG_OF_PERICENTER":270.1206,"MEAN_ANOMALY":89.9473,"EPHEMERIS_TYPE":0,"CLASSIFICATION_TYPE":"U","NORAD_CAT_ID":58245,"ELEMENT_SET_NO":999,"REV_AT_EPOCH":11336,"BSTAR":8.0393e-5,"MEAN_MOTION_DOT":8.82e-6,"MEAN_MOTION_DDOT":0},{"OBJECT_NAME":"STARLINK-30886","OBJECT_ID":"2023-171S","EPOCH":"2025-11-20T21:36:38.467008","MEAN_MOTION":15.02532747,"ECCENTRICITY":0.0001214,"INCLINATION":43.0032,"RA_OF_ASC_NODE":156.8763,"ARG_OF_PERICENTER":266.7161,"MEAN_ANOMALY":93.3542,"EPHEMERIS_TYPE":0,"CLASSIFICATION_TYPE":"U","NORAD_CAT_ID":58246,"ELEMENT_SET_NO":999,"REV_AT_EPOCH":11336,"BSTAR":-7.3782e-6,"MEAN_MOTION_DOT":-3.03e-6,"MEAN_MOTION_DDOT":0},{"OBJECT_NAME":"STARLINK-30850","OBJECT_ID":"2023-171T","EPOCH":"2025-11-20T23:07:34.380768","MEAN_MOTION":15.02535918,"ECCENTRICITY":0.0001312,"INCLINATION":43.0028,"RA_OF_ASC_NODE":156.4931,"ARG_OF_PERICENTER":265.9334,"MEAN_ANOMALY":94.1358,"EPHEMERIS_TYPE":0,"CLASSIFICATION_TYPE":"U","NORAD_CAT_ID":58247,"ELEMENT_SET_NO":999,"REV_AT_EPOCH":11337,"BSTAR":5.4732e-5,"MEAN_MOTION_DOT":5.36e-6,"MEAN_MOTION_DDOT":0},{"OBJECT_NAME":"STARLINK-30823","OBJECT_ID":"2023-171U","EPOCH":"2025-11-19T23:21:14.538816","MEAN_MOTION":15.02533007,"ECCENTRICITY":9.751e-5,"INCLINATION":43.0027,"RA_OF_ASC_NODE":161.9588,"ARG_OF_PERICENTER":249.0957,"MEAN_ANOMALY":110.9781,"EPHEMERIS_TYPE":0,"CLASSIFICATION_TYPE":"U","NORAD_CAT_ID":58248,"ELEMENT_SET_NO":999,"REV_AT_EPOCH":11322,"BSTAR":0.00010373355,"MEAN_MOTION_DOT":1.198e-5,"MEAN_MOTION_DDOT":0},{"OBJECT_NAME":"STARLINK-30873","OBJECT_ID":"2023-171V","EPOCH":"2025-11-20T23:21:57.654144","MEAN_MOTION":15.02533072,"ECCENTRICITY":8.68e-5,"INCLINATION":43.0026,"RA_OF_ASC_NODE":156.5641,"ARG_OF_PERICENTER":267.0476,"MEAN_ANOMALY":93.0267,"EPHEMERIS_TYPE":0,"CLASSIFICATION_TYPE":"U","NORAD_CAT_ID":58249,"ELEMENT_SET_NO":999,"REV_AT_EPOCH":11337,"BSTAR":8.859e-5,"MEAN_MOTION_DOT":9.93e-6,"MEAN_MOTION_DDOT":0},{"OBJECT_NAME":"STARLINK-30808","OBJECT_ID":"2023-171W","EPOCH":"2025-11-20T22:26:41.665344","MEAN_MOTION":15.02558436,"ECCENTRICITY":0.0002125,"INCLINATION":43.0044,"RA_OF_ASC_NODE":158.8142,"ARG_OF_PERICENTER":272.6508,"MEAN_ANOMALY":87.4091,"EPHEMERIS_TYPE":0,"CLASSIFICATION_TYPE":"U","NORAD_CAT_ID":58250,"ELEMENT_SET_NO":999,"REV_AT_EPOCH":11334,"BSTAR":-0.00031959,"MEAN_MOTION_DOT":-4.521e-5,"MEAN_MOTION_DDOT":0},{"OBJECT_NAME":"STARLINK-30881","OBJECT_ID":"2023-171X","EPOCH":"2025-11-20T21:17:36.533760","MEAN_MOTION":15.02537956,"ECCENTRICITY":9.82e-5,"INCLINATION":43.0025,"RA_OF_ASC_NODE":157.5467,"ARG_OF_PERICENTER":278.7514,"MEAN_ANOMALY":81.3217,"EPHEMERIS_TYPE":0,"CLASSIFICATION_TYPE":"U","NORAD_CAT_ID":58251,"ELEMENT_SET_NO":999,"REV_AT_EPOCH":11335,"BSTAR":0.00013059,"MEAN_MOTION_DOT":1.561e-5,"MEAN_MOTION_DDOT":0},{"OBJECT_NAME":"STARLINK-30883","OBJECT_ID":"2023-171Y","EPOCH":"2025-11-20T06:03:20.047104","MEAN_MOTION":15.02531724,"ECCENTRICITY":0.00012259,"INCLINATION":43.0032,"RA_OF_ASC_NODE":160.6046,"ARG_OF_PERICENTER":269.6095,"MEAN_ANOMALY":90.4607,"EPHEMERIS_TYPE":0,"CLASSIFICATION_TYPE":"U","NORAD_CAT_ID":58252,"ELEMENT_SET_NO":999,"REV_AT_EPOCH":11326,"BSTAR":7.7590681e-5,"MEAN_MOTION_DOT":8.45e-6,"MEAN_MOTION_DDOT":0},{"OBJECT_NAME":"STARLINK-30907","OBJECT_ID":"2023-177B","EPOCH":"2025-11-21T01:48:52.475040","MEAN_MOTION":15.02539295,"ECCENTRICITY":7.54e-5,"INCLINATION":43.003,"RA_OF_ASC_NODE":222.078,"ARG_OF_PERICENTER":259.9232,"MEAN_ANOMALY":100.1525,"EPHEMERIS_TYPE":0,"CLASSIFICATION_TYPE":"U","NORAD_CAT_ID":58352,"ELEMENT_SET_NO":999,"REV_AT_EPOCH":11196,"BSTAR":7.6534e-5,"MEAN_MOTION_DOT":8.31e-6,"MEAN_MOTION_DDOT":0},{"OBJECT_NAME":"STARLINK-30896","OBJECT_ID":"2023-177C","EPOCH":"2025-11-20T19:37:27.089760","MEAN_MOTION":15.27579278,"ECCENTRICITY":0.0001281,"INCLINATION":42.9996,"RA_OF_ASC_NODE":103.653,"ARG_OF_PERICENTER":279.3133,"MEAN_ANOMALY":80.7573,"EPHEMERIS_TYPE":0,"CLASSIFICATION_TYPE":"U","NORAD_CAT_ID":58353,"ELEMENT_SET_NO":999,"REV_AT_EPOCH":11318,"BSTAR":5.6283e-5,"MEAN_MOTION_DOT":1.287e-5,"MEAN_MOTION_DDOT":0}]
